OBJECT_NAME,OBJECT_ID,EPOCH,MEAN_MOTION,ECCENTRICITY,INCLINATION,RA_OF_ASC_NODE,ARG_OF_PERICENTER,MEAN_ANOMALY,EPHEMERIS_TYPE,CLASSIFICATION_TYPE,NORAD_CAT_ID,ELEMENT_SET_NO,REV_AT_EPOCH,BSTAR,MEAN_MOTION_DOT,MEAN_MOTION_DDOT
CUTE-1 (CO-55),2003-031E,2026-06-27T07:02:27.066912,14.24341593,.00101531,98.6736,186.7252,149.6738,210.5031,0,U,27844,999,19311,.14447339E-3,.29E-5,0
CUBESAT XI-IV (CO-57),2003-031J,2026-06-26T22:27:05.834016,14.23625736,.0009653,98.6768,186.0767,168.4758,191.6643,0,U,27848,999,19276,.1258E-3,.243E-5,0
CUBESAT XI-V,2005-043F,2026-06-26T21:57:38.655072,14.72656457,.0014316,98.2993,333.7414,169.8184,190.3315,0,U,28895,999,10318,.23373E-3,.1438E-4,0
CUTE-1.7+APD II (CO-65),2008-021C,2026-06-27T06:12:04.141728,15.09544451,.00087295,97.8271,159.8869,7.6473,352.4887,0,U,32785,999,98671,.30558966E-3,.484E-4,0
CANX-2,2008-021H,2026-06-26T22:11:27.974112,15.05685256,.0010772,97.8635,157.8920,22.2102,337.9588,0,U,32790,999,98627,.26291E-3,.3739E-4,0
SEEDS II (CO-66),2008-021J,2026-06-27T06:05:09.251520,15.33086255,.00006008,97.7515,176.6340,209.4374,150.6834,0,U,32791,999,98883,.6147077E-3,.19593E-3,0
SWISSCUBE,2009-051B,2026-06-27T05:25:23.528928,14.62499621,.00066941,98.4029,86.2889,170.0562,190.0773,0,U,35932,999,89062,.2061213E-3,.996E-5,0
BEESAT-1,2009-051C,2026-06-26T16:37:56.369856,14.61734342,.00048484,98.3957,85.3622,183.3217,176.7952,0,U,35933,999,89057,.16075564E-3,.752E-5,0
ITUPSAT1,2009-051E,2026-06-26T16:36:48.655584,14.60453570,.00067507,98.4042,84.5432,199.9772,160.1164,0,U,35935,999,89012,.15443273E-3,.7E-5,0
TISAT 1,2010-035E,2026-06-27T02:40:08.468832,15.32075173,.00027874,98.0704,125.5427,151.6215,208.5177,0,U,36799,999,86922,.69124482E-3,.21359E-3,0
AEROCUBE 4.5A,2012-048K,2026-06-27T05:06:49.548672,16.10182059,.00185337,64.6176,349.8406,254.7310,105.1811,0,U,38767,999,37426,.12350315E-2,.1199878E-1,.91737322E-3
STRAND-1,2013-009E,2026-06-26T22:36:53.601120,14.37168802,.0008273,98.3924,357.9366,193.8738,166.2222,0,U,39090,999,69846,.11041E-3,.286E-5,0
BRITE-AUSTRIA,2013-009F,2026-06-27T05:42:42.242688,14.36545799,.00096454,98.3998,357.4250,203.9103,156.1637,0,U,39091,999,69849,.7273093E-4,.171E-5,0
NEE-01 PEGASO,2013-018B,2026-06-27T02:42:51.573888,14.93708957,.00135358,98.1232,322.5921,128.5068,231.7367,0,U,39151,999,71218,.22838241E-3,.2359E-4,0
POPACS 2,2013-055E,2026-06-26T21:44:11.336928,14.91465034,.0416428,80.9907,133.0666,162.5758,199.0261,0,U,39269,999,66466,.25348E-3,.1511E-3,0
POPACS 3,2013-055F,2026-06-27T03:37:24.224448,14.56301719,.0551116,81.0002,218.3833,39.6618,324.3554,0,U,39270,999,64000,.25251334E-3,.10709E-3,0
ZACUBE-1 (TSHEPISOSAT),2013-066B,2026-06-27T03:19:56.196768,15.01240877,.00421836,97.8047,140.5267,213.8179,146.0354,0,U,39417,999,68222,.26151269E-3,.3358E-4,0
WNISAT-1,2013-066H,2026-06-27T07:10:44.629824,14.58081471,.0162596,97.7211,326.7382,199.5795,159.9116,0,U,39423,999,66820,.21877177E-3,.1158E-4,0
TRITON-1,2013-066M,2026-06-27T06:57:54.125856,14.81736095,.00891719,97.8242,87.8677,200.5151,159.2473,0,U,39427,999,67558,.21324368E-3,.1743E-4,0
GOMX-1,2013-066Q,2026-06-27T06:19:37.593984,14.69493788,.01297921,97.6484,18.0903,45.5773,315.5969,0,U,39430,999,67139,.31240729E-3,.2057E-4,0
CUBEBUG-2 (LO-74),2013-066AA,2026-06-27T07:28:57.048096,14.93842300,.0057383,97.8904,127.3330,355.5679,4.5024,0,U,39440,999,67850,.42087701E-3,.4554E-4,0
NEE-02 KRYSAOR,2013-066AB,2026-06-26T18:24:09.354816,14.86659035,.00671241,97.8892,116.9131,39.4303,321.1770,0,U,39441,999,67762,.29517323E-3,.2672E-4,0
FUNCUBE-1 (AO-73),2013-066AE,2026-06-27T04:45:49.348512,15.09604737,.00366733,97.8270,149.8537,166.8989,193.3201,0,U,39444,999,68117,.47725124E-3,.7726E-4,0
UWE-3,2013-066AG,2026-06-26T20:10:13.067328,14.97101122,.00467941,97.8709,133.9799,288.3987,71.2149,0,U,39446,999,67902,.36186931E-3,.4205E-4,0
BRITE-CA1 (TORONTO),2014-033L,2026-06-27T07:08:14.287776,14.72691743,.00773601,97.9749,307.0395,244.0799,115.2422,0,U,40020,999,64370,.13838691E-3,.87E-5,0
DUCHIFAT-1,2014-033M,2026-06-27T02:53:51.999936,15.66663856,.00010124,98.0447,238.6906,103.7667,256.3704,0,U,40021,999,65730,.11663849E-2,.123708E-2,0
NANOSATC-BR1,2014-033Q,2026-06-27T01:41:46.088448,15.31766053,.00050752,98.0720,211.3356,138.8301,221.3322,0,U,40024,999,65549,.58278837E-3,.17817E-3,0
QB50P1,2014-033R,2026-06-27T07:10:49.850112,15.18409172,.00088622,98.0962,190.1548,179.4885,180.6358,0,U,40025,999,65456,.42669053E-3,.8713E-4,0
QB50P2,2014-033Y,2026-06-26T22:33:24.164928,15.15279708,.0008808,98.0751,175.4276,134.4942,225.7010,0,U,40032,999,65414,.42349E-3,.7905E-4,0
PERSEUS-M2,2014-033AD,2026-06-27T05:35:35.098368,14.95545759,.00100067,97.9973,128.9787,267.7207,92.2868,0,U,40037,999,65228,.1890635E-3,.2036E-4,0
